ONEWEB-0142             
1 47288U 20100AG  23313.68672592 -.00001577  00000+0 -44180-2 0  9999
2 47288  87.9032 179.6690 0001823  83.0945 277.0391 13.12453381139992
ONEWEB-0143             
1 47289U 20100AH  23313.86990551  .00000238  00000+0  62567-3 0  9999
2 47289  87.9034 179.6517 0001565  76.8949 283.2354 13.12442425139995
ONEWEB-0144             
1 47290U 20100AJ  23313.91860325  .00000628  00000+0  17101-2 0  9998
2 47290  87.9031 179.6262 0002113 107.1275 253.0085 13.12441565139924
ONEWEB-0145             
1 47291U 20100AK  23313.88894768 -.00000427  00000+0 -12233-2 0  9993
2 47291  87.9036 179.6550 0001498  81.8465 278.2833 13.12443066140115
ONEWEB-0146             
1 47292U 20100AL  23313.88470806 -.00000338  00000+0 -97415-3 0  9994
2 47292  87.8953 179.6799 0001828  64.2727 295.8590 13.12440981140029
ONEWEB-0147             
1 47293U 20100AM  23313.92918845  .00000555  00000+0  15070-2 0  9995
2 47293  87.9033 179.6318 0001104  79.9649 280.1604 13.12444336139928
ONEWEB-0115             
1 48042U 21025A   23313.93608500 -.00000091  00000+0 -28275-3 0  9999
2 48042  87.8991 149.3428 0001955  90.1723 269.9630 13.13471734128858
ONEWEB-0152             
1 48043U 21025B   23313.94878619 -.00000120  00000+0 -36253-3 0  9999
2 48043  87.8993 149.3288 0001421  83.0621 277.0670 13.13470527128810
